SITRO-AIS 27            
1 59068U 24039T   24097.84988668  .00003000  00000+0  29622-3 0  9991
2 59068  95.3978  49.1111 0172408 227.5439 131.1097 14.81854748  5548
SITRO-AIS 28            
1 59071U 24039U   24097.84896901  .00002908  00000+0  28708-3 0  9993
2 59071  95.3979  49.1126 0172264 227.5473 131.1074 14.81888869  5543
